NORAD_CAT_ID,OBJECT_NAME,OBJECT_TYPE,EPOCH,MEAN_MOTION,ECCENTRICITY,INCLINATION,RA_OF_ASC_NODE,ARG_OF_PERICENTER,MEAN_ANOMALY,BSTAR,MEAN_MOTION_DOT,MEAN_MOTION_DDOT,TLE_LINE0,TLE_LINE1,TLE_LINE2,SEMIMAJOR_AXIS,PERIOD,APOGEE,PERIGEE,DECAYED
56490.0,STARLINK-5873,PAYLOAD,2024-05-03 20:17:45,14.98323265,0.0002593,70.0001,6.1311,271.0289,89.0573,-0.00016177,-2.022e-05,0.0,0 STARLINK-5873,1 56490U 23064AU  24124.84566942 -.00002022  00000-0 -16177-3 0  9999,2 56490  70.0001   6.1311 0002593 271.0289  89.0573 14.98323265 55504,6950.214,96.107,573.881,570.277,0.0
56490.0,STARLINK-5873,PAYLOAD,2024-05-03 21:53:54,14.98320983,0.0002711,70.0,5.9629,270.3427,89.7421,-0.00016636,-2.077e-05,0.0,0 STARLINK-5873,1 56490U 23064AU  24124.91243141 -.00002077  00000-0 -16636-3 0  9990,2 56490  70.0000   5.9629 0002711 270.3427  89.7421 14.98320983 55154,6950.221,96.108,573.97,570.202,0.0
56490.0,STARLINK-5873,PAYLOAD,2024-05-04 20:19:46,14.98326563,0.0002968,69.9997,3.6078,265.9515,94.1305,1.1871e-05,4.9e-07,0.0,0 STARLINK-5873,1 56490U 23064AU  24125.84706709  .00000049  00000-0  11871-4 0  9999,2 56490  69.9997   3.6078 0002968 265.9515  94.1305 14.98326563 55657,6950.204,96.107,574.131,570.006,0.0
56490.0,STARLINK-5873,PAYLOAD,2024-05-05 01:08:10,14.98325372,0.0002941,69.9997,3.1025,264.9846,95.0978,3.3987e-05,3.13e-06,0.0,0 STARLINK-5873,1 56490U 23064AU  24126.04734775  .00000313  00000-0  33987-4 0  9992,2 56490  69.9997   3.1025 0002941 264.9846  95.0978 14.98325372 55328,6950.207,96.107,574.116,570.028,0.0
56490.0,STARLINK-5873,PAYLOAD,2024-05-05 21:57:54,14.98334103,0.0003159,69.9989,0.9123,267.1114,92.9683,0.00022483,2.591e-05,0.0,0 STARLINK-5873,1 56490U 23064AU  24126.91521669  .00002591  00000-0  22483-3 0  9992,2 56490  69.9989   0.9123 0003159 267.1114  92.9683 14.98334103 55813,6950.18,96.107,574.241,569.85,0.0
56490.0,STARLINK-5873,PAYLOAD,2024-05-06 09:10:51,14.98333452,0.0003097,69.9988,359.7327,268.9399,91.1405,0.00013262,1.49e-05,0.0,0 STARLINK-5873,1 56490U 23064AU  24127.38253784  .00001490  00000-0  13262-3 0  9996,2 56490  69.9988 359.7327 0003097 268.9399  91.1405 14.98333452 55525,6950.182,96.107,574.2,569.895,0.0
56490.0,STARLINK-5873,PAYLOAD,2024-05-06 20:23:48,14.98330602,0.0002989,69.999,358.5546,268.0276,92.0541,3.073e-05,2.74e-06,0.0,0 STARLINK-5873,1 56490U 23064AU  24127.84986191  .00000274  00000-0  30730-4 0  9991,2 56490  69.9990 358.5546 0002989 268.0276  92.0541 14.98330602 55954,6950.191,96.107,574.133,569.979,0.0
56490.0,STARLINK-5873,PAYLOAD,2024-05-06 21:59:56,14.98331286,0.0002994,69.999,358.3859,267.385,92.6966,7.932e-06,2e-08,0.0,0 STARLINK-5873,1 56490U 23064AU  24127.91662192  .00000002  00000-0  79320-5 0  9999,2 56490  69.9990 358.3859 0002994 267.3850  92.6966 14.98331286 55603,6950.189,96.107,574.135,569.973,0.0
56490.0,STARLINK-5873,PAYLOAD,2024-05-07 12:25:08,14.98334322,0.0002704,69.9997,356.8712,266.0869,93.9981,-7.4876e-05,-9.86e-06,0.0,0 STARLINK-5873,1 56490U 23064AU  24128.51746089 -.00000986  00000-0 -74876-4 0  9997,2 56490  69.9997 356.8712 0002704 266.0869  93.9981 14.98334322 55690,6950.18,96.107,573.924,570.165,0.0
56490.0,STARLINK-5873,PAYLOAD,2024-05-07 20:25:49,14.98331425,0.0002708,69.9996,356.0296,265.5698,94.5152,-0.00014068,-1.771e-05,0.0,0 STARLINK-5873,1 56490U 23064AU  24128.85126372 -.00001771  00000-0 -14068-3 0  9990,2 56490  69.9996 356.0296 0002708 265.5698  94.5152 14.98331425 56101,6950.188,96.107,573.936,570.171,0.0
56490.0,STARLINK-5873,PAYLOAD,2024-05-07 22:01:57,14.98330386,0.0002845,69.9996,355.8614,268.7718,91.3115,-0.00015156,-1.901e-05,0.0,0 STARLINK-5873,1 56490U 23064AU  24128.91802467 -.00001901  00000-0 -15156-3 0  9997,2 56490  69.9996 355.8614 0002845 268.7718  91.3115 14.98330386 55751,6950.192,96.107,574.034,570.079,0.0
56490.0,STARLINK-5873,PAYLOAD,2024-05-08 01:14:13,14.9833135,0.0002882,69.9995,355.5252,270.6575,89.4254,-0.00014467,-1.819e-05,0.0,0 STARLINK-5873,1 56490U 23064AU  24129.05154373 -.00001819  00000-0 -14467-3 0  9991,2 56490  69.9995 355.5252 0002882 270.6575  89.4254 14.98331350 55775,6950.189,96.107,574.057,570.051,0.0
56490.0,STARLINK-5873,PAYLOAD,2024-05-08 20:27:49,14.98338585,0.0002731,69.9991,353.5041,272.4356,87.6491,-5.5196e-05,-7.52e-06,0.0,0 STARLINK-5873,1 56490U 23064AU  24129.85265478 -.00000752  00000-0 -55196-4 0  9998,2 56490  69.9991 353.5041 0002731 272.4356  87.6491 14.98338585 56259,6950.166,96.106,573.929,570.133,0.0
56490.0,STARLINK-5873,PAYLOAD,2024-05-08 22:03:57,14.9833417,0.0003077,69.9991,353.3357,275.6993,84.3815,5.4556e-05,5.58e-06,0.0,0 STARLINK-5873,1 56490U 23064AU  24129.91941409  .00000558  00000-0  54556-4 0  9991,2 56490  69.9991 353.3357 0003077 275.6993  84.3815 14.98334170 55904,6950.18,96.107,574.184,569.906,0.0
56490.0,STARLINK-5873,PAYLOAD,2024-05-09 01:16:12,14.98361323,0.0002577,69.9995,352.9999,272.3131,87.7733,-0.00032387,-3.958e-05,0.0,0 STARLINK-5873,1 56490U 23064AU  24130.05292522 -.00003958  00000-0 -32387-3 0  9999,2 56490  69.9995 352.9999 0002577 272.3131  87.7733 14.98361323 56285,6950.096,96.105,573.752,570.17,0.0
56490.0,STARLINK-5873,PAYLOAD,2024-05-09 07:40:45,14.98332263,0.00026,70.0003,352.3265,272.1622,87.924,2.5657e-05,2.13e-06,0.0,0 STARLINK-5873,1 56490U 23064AU  24130.31997541  .00000213  00000-0  25657-4 0  9993,2 56490  70.0003 352.3265 0002600 272.1622  87.9240 14.98332263 56329,6950.186,96.107,573.858,570.244,0.0
56490.0,STARLINK-5873,PAYLOAD,2024-05-09 22:05:58,14.98344013,0.0002754,70.0,350.8123,261.7936,98.2911,-0.00026907,-3.303e-05,0.0,0 STARLINK-5873,1 56490U 23064AU  24130.92081384 -.00003303  00000-0 -26907-3 0  9992,2 56490  70.0000 350.8123 0002754 261.7936  98.2911 14.98344013 56050,6950.15,96.106,573.929,570.1,0.0
56490.0,STARLINK-5873,PAYLOAD,2024-05-10 01:18:14,14.98325925,0.0002665,70.0001,350.4758,262.3089,97.7768,7.3144e-05,7.8e-06,0.0,0 STARLINK-5873,1 56490U 23064AU  24131.05433768  .00000780  00000-0  73144-4 0  9994,2 56490  70.0001 350.4758 0002665 262.3089  97.7768 14.98325925 56075,6950.205,96.107,573.923,570.218,0.0
56490.0,STARLINK-5873,PAYLOAD,2024-05-10 20:31:43,14.98441605,0.0003391,69.9995,348.4549,264.2691,95.8082,0.0012072,0.00014383,0.0,0 STARLINK-5873,1 56490U 23064AU  24131.85536371  .00014383  00000-0  12072-2 0  9991,2 56490  69.9995 348.4549 0003391 264.2691  95.8082 14.98441605 56551,6949.848,96.1,574.069,569.356,0.0
56490.0,STARLINK-5873,PAYLOAD,2024-05-10 22:08:00,14.98325293,0.0003057,69.9989,348.2862,271.9575,88.1234,-0.00010056,-1.293e-05,0.0,0 STARLINK-5873,1 56490U 23064AU  24131.92222605 -.00001293  00000-0 -10056-3 0  9990,2 56490  69.9989 348.2862 0003057 271.9575  88.1234 14.98325293 56205,6950.207,96.107,574.197,569.948,0.0
56490.0,STARLINK-5873,PAYLOAD,2024-05-10 23:44:04,14.98376092,0.0003254,69.9988,348.1188,269.9651,90.1135,0.00043868,5.151e-05,0.0,0 STARLINK-5873,1 56490U 23064AU  24131.98894222  .00005151  00000-0  43868-3 0  9998,2 56490  69.9988 348.1188 0003254 269.9651  90.1135 14.98376092 56571,6950.05,96.104,574.177,569.654,0.0
56490.0,STARLINK-5873,PAYLOAD,2024-05-11 06:08:38,14.9834615,0.0003185,69.9999,347.4459,263.2628,96.8169,0.00012006,1.34e-05,0.0,0 STARLINK-5873,1 56490U 23064AU  24132.25600464  .00001340  00000-0  12006-3 0  9998,2 56490  69.9999 347.4459 0003185 263.2628  96.8169 14.98346150 56617,6950.143,96.106,574.222,569.794,0.0
56490.0,STARLINK-5873,PAYLOAD,2024-05-11 20:33:52,14.9832263,0.0003085,69.999,345.9311,271.3152,88.7654,-0.00011897,-1.512e-05,0.0,0 STARLINK-5873,1 56490U 23064AU  24132.85685739 -.00001512  00000-0 -11897-3 0  9992,2 56490  69.9990 345.9311 0003085 271.3152  88.7654 14.98322630 56705,6950.216,96.107,574.225,569.937,0.0
56490.0,STARLINK-5873,PAYLOAD,2024-05-11 22:10:00,14.98320009,0.0002924,69.9987,345.7614,271.4244,88.658,-5.2991e-05,-7.25e-06,0.0,0 STARLINK-5873,1 56490U 23064AU  24132.92361848 -.00000725  00000-0 -52991-4 0  9998,2 56490  69.9987 345.7614 0002924 271.4244  88.6580 14.98320009 56355,6950.224,96.108,574.121,570.057,0.0
56490.0,STARLINK-5873,PAYLOAD,2024-05-12 07:46:52,14.98286075,0.0002669,69.9989,344.7522,276.1336,83.9519,-0.00052321,-6.323e-05,0.0,0 STARLINK-5873,1 56490U 23064AU  24133.32421820 -.00006323  00000-0 -52321-3 0  9996,2 56490  69.9989 344.7522 0002669 276.1336  83.9519 14.98286075 56774,6950.329,96.11,574.049,570.339,0.0
56490.0,STARLINK-5873,PAYLOAD,2024-05-12 14:11:27,14.98259923,0.0002658,69.9983,344.0787,272.5678,87.5177,-0.00061697,-7.433e-05,0.0,0 STARLINK-5873,1 56490U 23064AU  24133.59128656 -.00007433  00000-0 -61697-3 0  9995,2 56490  69.9983 344.0787 0002658 272.5678  87.5177 14.98259923 56458,6950.41,96.111,574.122,570.427,0.0
56490.0,STARLINK-5873,PAYLOAD,2024-05-12 20:35:52,14.98354208,0.0002932,69.9988,343.4053,268.6027,91.4796,0.00052243,6.15e-05,0.0,0 STARLINK-5873,1 56490U 23064AU  24133.85824798  .00006150  00000-0  52243-3 0  9994,2 56490  69.9988 343.4053 0002932 268.6027  91.4796 14.98354208 56858,6950.118,96.105,574.021,569.945,0.0
56490.0,STARLINK-5873,PAYLOAD,2024-05-12 22:12:03,14.98318707,0.0002803,69.9985,343.2369,269.57,90.5138,1.2912e-05,6.1e-07,0.0,0 STARLINK-5873,1 56490U 23064AU  24133.92504265  .00000061  00000-0  12912-4 0  9991,2 56490  69.9985 343.2369 0002803 269.5700  90.5138 14.98318707 56504,6950.228,96.108,574.041,570.145,0.0
56490.0,STARLINK-5873,PAYLOAD,2024-05-12 23:48:11,14.98316685,0.0002886,69.9985,343.0687,272.3254,87.7575,7.8584e-05,8.44e-06,0.0,0 STARLINK-5873,1 56490U 23064AU  24133.99180295  .00000844  00000-0  78584-4 0  9997,2 56490  69.9985 343.0687 0002886 272.3254  87.7575 14.98316685 56878,6950.234,96.108,574.105,570.093,0.0
56490.0,STARLINK-5873,PAYLOAD,2024-05-13 07:48:51,14.9832727,0.0002917,69.9984,342.2271,271.9315,88.151,1.6984e-05,1.1e-06,0.0,0 STARLINK-5873,1 56490U 23064AU  24134.32560022  .00000110  00000-0  16984-4 0  9997,2 56490  69.9984 342.2271 0002917 271.9315  88.1510 14.98327270 56927,6950.201,96.107,574.094,570.039,0.0
